start=new Date('2021-11-25T00:00:00.000Z').valueOf();
sats=[{"CENTER_NAME":"EARTH","NORAD_CAT_ID":"45581","CLASSIFICATION_TYPE":"U","INCLINATION":"53.0535","OBJECT_TYPE":"PAYLOAD","GP_ID":"190396736","EPHEMERIS_TYPE":"0","APOAPSIS":"548.572","REF_FRAME":"TEME","FILE":"3223022","MEAN_ANOMALY":"284.5800","BSTAR":"-0.00005414900000","MEAN_MOTION_DOT":"-0.00001088","LAUNCH_DATE":"2020-04-22","RCS_SIZE":"LARGE","ECCENTRICITY":"0.00019050","REV_AT_EPOCH":"8940","TIME_SYSTEM":"UTC","DECAY_DATE":null,"TLE_LINE1":"1 45581U 20025BC  21328.21300255 -.00001088  00000-0 -54149-4 0  9992","ARG_OF_PERICENTER":"75.5400","SITE":"AFETR","MEAN_MOTION":"15.06387364","ELEMENT_SET_NO":"999","EPOCH":"2021-11-24T05:06:43.420320","COUNTRY_CODE":"US","PERIAPSIS":"545.933","OBJECT_NAME":"STARLINK-1335","MEAN_ELEMENT_THEORY":"SGP4","MEAN_MOTION_DDOT":"0.0000000000000","OBJECT_ID":"2020-025BC","RA_OF_ASC_NODE":"268.8091","SEMIMAJOR_AXIS":"6925.387","PERIOD":"95.593","TLE_LINE2":"2 45581  53.0535 268.8091 0001905  75.5400 284.5800 15.06387364 89407"},{"TIME_SYSTEM":"UTC","REV_AT_EPOCH":"8940","TLE_LINE1":"1 45582U 20025BD  21328.23510559  .00000550  00000-0  55818-4 0  9990","DECAY_DATE":null,"RCS_SIZE":"LARGE","ECCENTRICITY":"0.00016820","MEAN_MOTION_DDOT":"0.0000000000000","MEAN_ELEMENT_THEORY":"SGP4","SEMIMAJOR_AXIS":"6925.334","RA_OF_ASC_NODE":"268.7129","PERIOD":"95.592","TLE_LINE2":"2 45582  53.0532 268.7129 0001682  72.3788 287.7384 15.06404606 89403","OBJECT_ID":"2020-025BD","MEAN_MOTION":"15.06404606","SITE":"AFETR","ARG_OF_PERICENTER":"72.3788","EPOCH":"2021-11-24T05:38:33.122976","COUNTRY_CODE":"US","PERIAPSIS":"546.035","OBJECT_NAME":"STARLINK-1337","ELEMENT_SET_NO":"999","GP_ID":"190396480","EPHEMERIS_TYPE":"0","APOAPSIS":"548.364","OBJECT_TYPE":"PAYLOAD","CENTER_NAME":"EARTH","NORAD_CAT_ID":"45582","INCLINATION":"53.0532","CLASSIFICATION_TYPE":"U","BSTAR":"0.00005581800000","MEAN_ANOMALY":"287.7384","FILE":"3223022","REF_FRAME":"TEME","LAUNCH_DATE":"2020-04-22","MEAN_MOTION_DOT":"0.00000550"},{"MEAN_MOTION_DOT":"0.00000265","LAUNCH_DATE":"2020-04-22","MEAN_ANOMALY":"290.3462","FILE":"3223022","REF_FRAME":"TEME","BSTAR":"0.00003671700000","OBJECT_TYPE":"PAYLOAD","APOAPSIS":"548.370","EPHEMERIS_TYPE":"0","GP_ID":"190395242","INCLINATION":"53.0543","CLASSIFICATION_TYPE":"U","NORAD_CAT_ID":"45583","CENTER_NAME":"EARTH","OBJECT_ID":"2020-025BE","TLE_LINE2":"2 45583  53.0543 268.7890 0001643  69.7703 290.3462 15.06393817 89403","PERIOD":"95.593","SEMIMAJOR_AXIS":"6925.368","RA_OF_ASC_NODE":"268.7890","MEAN_ELEMENT_THEORY":"SGP4","MEAN_MOTION_DDOT":"0.0000000000000","ELEMENT_SET_NO":"999","PERIAPSIS":"546.095","OBJECT_NAME":"STARLINK-1340","EPOCH":"2021-11-24T05:12:01.443168","COUNTRY_CODE":"US","ARG_OF_PERICENTER":"69.7703","MEAN_MOTION":"15.06393817","SITE":"AFETR","DECAY_DATE":null,"TLE_LINE1":"1 45583U 20025BE  21328.21668337  .00000265  00000-0  36717-4 0  9997","REV_AT_EPOCH":"8940","TIME_SYSTEM":"UTC","ECCENTRICITY":"0.00016430","RCS_SIZE":"LARGE"},{"OBJECT_TYPE":"PAYLOAD","EPHEMERIS_TYPE":"0","APOAPSIS":"548.891","GP_ID":"190395492","NORAD_CAT_ID":"45584","CENTER_NAME":"EARTH","INCLINATION":"53.0536","CLASSIFICATION_TYPE":"U","FILE":"3223022","MEAN_ANOMALY":"298.4811","REF_FRAME":"TEME","BSTAR":"-0.00000055937000","MEAN_MOTION_DOT":"-0.00000290","LAUNCH_DATE":"2020-04-22","REV_AT_EPOCH":"8940","TIME_SYSTEM":"UTC","DECAY_DATE":null,"TLE_LINE1":"1 45584U 20025BF  21328.20563075 -.00000290  00000-0 -55937-6 0  9997","RCS_SIZE":"LARGE","ECCENTRICITY":"0.00023960","MEAN_ELEMENT_THEORY":"SGP4","MEAN_MOTION_DDOT":"0.0000000000000","OBJECT_ID":"2020-025BF","PERIOD":"95.593","TLE_LINE2":"2 45584  53.0536 268.8333 0002396  61.6419 298.4811 15.06394002 89404","SEMIMAJOR_AXIS":"6925.367","RA_OF_ASC_NODE":"268.8333","ARG_OF_PERICENTER":"61.6419","SITE":"AFETR","MEAN_MOTION":"15.06394002","ELEMENT_SET_NO":"999","OBJECT_NAME":"STARLINK-1343","PERIAPSIS":"545.573","EPOCH":"2021-11-24T04:56:06.496800","COUNTRY_CODE":"US"},{"MEAN_MOTION_DDOT":"0.0000000000000","MEAN_ELEMENT_THEORY":"SGP4","RA_OF_ASC_NODE":"266.0916","SEMIMAJOR_AXIS":"6830.368","PERIOD":"93.632","TLE_LINE2":"2 45585  53.0557 266.0916 0001718  52.1626 307.9532 15.37930145 88860","OBJECT_ID":"2020-025BG","MEAN_MOTION":"15.37930145","SITE":"AFETR","ARG_OF_PERICENTER":"52.1626","COUNTRY_CODE":"US","EPOCH":"2021-11-24T11:15:55.154304","PERIAPSIS":"451.060","OBJECT_NAME":"STARLINK-1345","ELEMENT_SET_NO":"999","TIME_SYSTEM":"UTC","REV_AT_EPOCH":"8886","TLE_LINE1":"1 45585U 20025BG  21328.46938836  .00276596  00000-0  70547-2 0  9999","DECAY_DATE":null,"RCS_SIZE":"LARGE","ECCENTRICITY":"0.00017180","BSTAR":"0.00705470000000","FILE":"3223058","REF_FRAME":"TEME","MEAN_ANOMALY":"307.9532","LAUNCH_DATE":"2020-04-22","MEAN_MOTION_DOT":"0.00276596","GP_ID":"190400267","EPHEMERIS_TYPE":"0","APOAPSIS":"453.406","OBJECT_TYPE":"PAYLOAD","CENTER_NAME":"EARTH","NORAD_CAT_ID":"45585","CLASSIFICATION_TYPE":"U","INCLINATION":"53.0557"},{"MEAN_MOTION_DOT":"-0.00001886","LAUNCH_DATE":"2020-04-22","MEAN_ANOMALY":"286.7352","FILE":"3223022","REF_FRAME":"TEME","BSTAR":"-0.00010777000000","OBJECT_TYPE":"PAYLOAD","APOAPSIS":"548.339","EPHEMERIS_TYPE":"0","GP_ID":"190396981","CLASSIFICATION_TYPE":"U","INCLINATION":"53.0558","NORAD_CAT_ID":"45586","CENTER_NAME":"EARTH","OBJECT_ID":"2020-025BH","PERIOD":"95.593","TLE_LINE2":"2 45586  53.0558 268.7296 0001582  73.3810 286.7352 15.06390235 89390","SEMIMAJOR_AXIS":"6925.378","RA_OF_ASC_NODE":"268.7296","MEAN_ELEMENT_THEORY":"SGP4","MEAN_MOTION_DDOT":"0.0000000000000","ELEMENT_SET_NO":"999","PERIAPSIS":"546.148","OBJECT_NAME":"STARLINK-1347","COUNTRY_CODE":"US","EPOCH":"2021-11-24T05:27:57.609504","ARG_OF_PERICENTER":"73.3810","SITE":"AFETR","MEAN_MOTION":"15.06390235","DECAY_DATE":null,"TLE_LINE1":"1 45586U 20025BH  21328.22775011 -.00001886  00000-0 -10777-3 0  9998","REV_AT_EPOCH":"8939","TIME_SYSTEM":"UTC","ECCENTRICITY":"0.00015820","RCS_SIZE":"LARGE"},{"SEMIMAJOR_AXIS":"6925.343","RA_OF_ASC_NODE":"268.5833","PERIOD":"95.592","TLE_LINE2":"2 45587  53.0531 268.5833 0001884  63.5651 296.5531 15.06401672 89415","OBJECT_ID":"2020-025BJ","MEAN_MOTION_DDOT":"0.0000000000000","MEAN_ELEMENT_THEORY":"SGP4","EPOCH":"2021-11-24T06:21:01.230912","COUNTRY_CODE":"US","OBJECT_NAME":"STARLINK-1349","PERIAPSIS":"545.904","ELEMENT_SET_NO":"999","MEAN_MOTION":"15.06401672","SITE":"AFETR","ARG_OF_PERICENTER":"63.5651","TLE_LINE1":"1 45587U 20025BJ  21328.26459758 -.00000483  00000-0 -13490-4 0  9998","DECAY_DATE":null,"TIME_SYSTEM":"UTC","REV_AT_EPOCH":"8941","ECCENTRICITY":"0.00018840","RCS_SIZE":"LARGE","LAUNCH_DATE":"2020-04-22","MEAN_MOTION_DOT":"-0.00000483","BSTAR":"-0.00001349000000","FILE":"3223022","REF_FRAME":"TEME","MEAN_ANOMALY":"296.5531","GP_ID":"190395743","APOAPSIS":"548.513","EPHEMERIS_TYPE":"0","OBJECT_TYPE":"PAYLOAD","CLASSIFICATION_TYPE":"U","INCLINATION":"53.0531","CENTER_NAME":"EARTH","NORAD_CAT_ID":"45587"},{"REV_AT_EPOCH":"8940","TIME_SYSTEM":"UTC","DECAY_DATE":null,"TLE_LINE1":"1 45588U 20025BK  21328.24249037  .00001562  00000-0  12371-3 0  9997","RCS_SIZE":"LARGE","ECCENTRICITY":"0.00017310","MEAN_ELEMENT_THEORY":"SGP4","MEAN_MOTION_DDOT":"0.0000000000000","OBJECT_ID":"2020-025BK","PERIOD":"95.592","TLE_LINE2":"2 45588  53.0547 268.6805 0001731  65.6770 294.4400 15.06400027 89403","SEMIMAJOR_AXIS":"6925.348","RA_OF_ASC_NODE":"268.6805","ARG_OF_PERICENTER":"65.6770","SITE":"AFETR","MEAN_MOTION":"15.06400027","ELEMENT_SET_NO":"999","PERIAPSIS":"546.015","OBJECT_NAME":"STARLINK-1360","EPOCH":"2021-11-24T05:49:11.167968","COUNTRY_CODE":"US","OBJECT_TYPE":"PAYLOAD","EPHEMERIS_TYPE":"0","APOAPSIS":"548.412","GP_ID":"190395993","NORAD_CAT_ID":"45588","CENTER_NAME":"EARTH","INCLINATION":"53.0547","CLASSIFICATION_TYPE":"U","REF_FRAME":"TEME","FILE":"3223022","MEAN_ANOMALY":"294.4400","BSTAR":"0.00012371000000","MEAN_MOTION_DOT":"0.00001562","LAUNCH_DATE":"2020-04-22"},{"TIME_SYSTEM":"UTC","REV_AT_EPOCH":"8940","TLE_LINE1":"1 45589U 20025BL  21328.23880213 -.00000699  00000-0 -27992-4 0  9992","DECAY_DATE":null,"RCS_SIZE":"LARGE","ECCENTRICITY":"0.00021250","MEAN_MOTION_DDOT":"0.0000000000000","MEAN_ELEMENT_THEORY":"SGP4","RA_OF_ASC_NODE":"268.6939","SEMIMAJOR_AXIS":"6925.350","PERIOD":"95.592","TLE_LINE2":"2 45589  53.0548 268.6939 0002125  61.2785 298.8417 15.06399593 89400","OBJECT_ID":"2020-025BL","SITE":"AFETR","MEAN_MOTION":"15.06399593","ARG_OF_PERICENTER":"61.2785","EPOCH":"2021-11-24T05:43:52.504032","COUNTRY_CODE":"US","PERIAPSIS":"545.743","OBJECT_NAME":"STARLINK-1364","ELEMENT_SET_NO":"999","GP_ID":"190396737","EPHEMERIS_TYPE":"0","APOAPSIS":"548.686","OBJECT_TYPE":"PAYLOAD","CENTER_NAME":"EARTH","NORAD_CAT_ID":"45589","INCLINATION":"53.0548","CLASSIFICATION_TYPE":"U","BSTAR":"-0.00002799200000","FILE":"3223022","MEAN_ANOMALY":"298.8417","REF_FRAME":"TEME","LAUNCH_DATE":"2020-04-22","MEAN_MOTION_DOT":"-0.00000699"},{"LAUNCH_DATE":"2020-04-22","MEAN_MOTION_DOT":"-0.00000524","BSTAR":"-0.00001627900000","MEAN_ANOMALY":"291.0562","FILE":"3223022","REF_FRAME":"TEME","CLASSIFICATION_TYPE":"U","INCLINATION":"53.0556","NORAD_CAT_ID":"45590","CENTER_NAME":"EARTH","EPHEMERIS_TYPE":"0","APOAPSIS":"548.488","GP_ID":"190396481","OBJECT_TYPE":"PAYLOAD","OBJECT_NAME":"STARLINK-1365","PERIAPSIS":"545.978","COUNTRY_CODE":"US","EPOCH":"2021-11-24T07:41:58.856640","ELEMENT_SET_NO":"999","MEAN_MOTION":"15.06393687","SITE":"AFETR","ARG_OF_PERICENTER":"69.0621","TLE_LINE2":"2 45590  53.0556 298.3270 0001812  69.0621 291.0562 15.06393687 89017","PERIOD":"95.593","RA_OF_ASC_NODE":"298.3270","SEMIMAJOR_AXIS":"6925.368","OBJECT_ID":"2020-025BM","MEAN_MOTION_DDOT":"0.0000000000000","MEAN_ELEMENT_THEORY":"SGP4","ECCENTRICITY":"0.00018120","RCS_SIZE":"LARGE","TLE_LINE1":"1 45590U 20025BM  21328.32082010 -.00000524  00000-0 -16279-4 0  9996","DECAY_DATE":null,"TIME_SYSTEM":"UTC","REV_AT_EPOCH":"8901"}];
